IRIDIUM 7               
1 24793U 97020B   24272.47466607  .00000988  00000+0  33724-3 0  9996
2 24793  86.3902 286.5614 0002002  92.6279 267.5147 14.35444352434341
IRIDIUM 5               
1 24795U 97020D   24272.87254769  .00016170  00000+0  14774-2 0  9999
2 24795  86.3961 203.7273 0117940 355.3186   4.6925 14.89698914446525
IRIDIUM 4               
1 24796U 97020E   24272.76322545  .00001017  00000+0  34106-3 0  9992
2 24796  86.3897 283.4861 0002209  88.1028 272.0422 14.36370535434965
IRIDIUM 914             
1 24836U 97030A   24272.51519271  .00001130  00000+0  35083-3 0  9996
2 24836  86.3886 292.9829 0002944  55.2738 304.8738 14.40270053569452
IRIDIUM 16              
1 24841U 97030F   24272.85116655  .00001102  00000+0  35703-3 0  9996
2 24841  86.4025 315.1027 0002527 146.9115 213.2241 14.38168668429694
IRIDIUM 911             
1 24842U 97030G   24272.57165653  .00001393  00000+0  37826-3 0  9998
2 24842  86.4449 314.2528 0012192 245.8821 114.1107 14.46890911437245
IRIDIUM 17              
1 24870U 97034B   24272.67670142  .00001166  00000+0  38498-3 0  9992
2 24870  86.4008 344.7411 0003383 118.2910 241.8629 14.37276647426014
IRIDIUM 920             
1 24871U 97034C   24272.55775172  .00001030  00000+0  31443-3 0  9992
2 24871  86.3987 324.6325 0010192 215.8818 144.1698 14.40974150429155
